[{"OBJECT_NAME":"LKW-3","OBJECT_ID":"2018-006A","EPOCH":"2026-03-09T23:35:48.740928","MEAN_MOTION":15.33087407,"ECCENTRICITY":0.00022503,"INCLINATION":97.6481,"RA_OF_ASC_NODE":225.9034,"ARG_OF_PERICENTER":308.148,"MEAN_ANOMALY":51.9559,"EPHEMERIS_TYPE":0,"CLASSIFICATION_TYPE":"U","NORAD_CAT_ID":43146,"ELEMENT_SET_NO":999,"REV_AT_EPOCH":45350,"BSTAR":0.00042518021,"MEAN_MOTION_DOT":0.00013518,"MEAN_MOTION_DDOT":0},{"OBJECT_NAME":"STARLINK-35212","OBJECT_ID":"2025-198E","EPOCH":"2026-03-09T22:03:13.621824","MEAN_MOTION":15.30199893,"ECCENTRICITY":0.00010391,"INCLINATION":53.156,"RA_OF_ASC_NODE":270.0425,"ARG_OF_PERICENTER":108.5574,"MEAN_ANOMALY":251.554,"EPHEMERIS_TYPE":0,"CLASSIFICATION_TYPE":"U","NORAD_CAT_ID":65496,"ELEMENT_SET_NO":999,"REV_AT_EPOCH":2865,"BSTAR":0.00078180196,"MEAN_MOTION_DOT":0.00022867,"MEAN_MOTION_DDOT":0}]
